G21
G90
G1 F3000
G0 X0.000 Y0.000
G1 X120.000 Y0.000
G0 X120.000 Y12.000
G1 X0.000 Y12.000
G0 X0.000 Y24.000
G1 X120.000 Y24.000
G0 X120.000 Y36.000
G1 X0.000 Y36.000
G0 X0.000 Y48.000
G1 X120.000 Y48.000
G0 X120.000 Y60.000
G1 X0.000 Y60.000
G0 X0.000 Y72.000
G1 X120.000 Y72.000
G0 X120.000 Y84.000
G1 X0.000 Y84.000
G0 X0.000 Y96.000
G1 X120.000 Y96.000
G0 X120.000 Y108.000
G1 X0.000 Y108.000
G0 X0.000 Y120.000
G1 X120.000 Y120.000
G0 F6000
G0 X0.000 Y120.000
G0 X0.000 Y108.000
G0 X120.000 Y108.000
G0 X120.000 Y96.000
G0 X0.000 Y96.000
G0 X0.000 Y84.000
G0 X120.000 Y84.000
G0 X120.000 Y72.000
G0 X0.000 Y72.000
G0 X0.000 Y60.000
G0 X120.000 Y60.000
G0 X120.000 Y48.000
G0 X0.000 Y48.000
G0 X0.000 Y36.000
G0 X120.000 Y36.000
G0 X120.000 Y24.000
G0 X0.000 Y24.000
G0 X0.000 Y12.000
G0 X120.000 Y12.000
G0 X120.000 Y0.000
G0 X0.000 Y0.000
